{"type": "FeatureCollection", "features": [ {"type": "Feature", "properties": {"norad_id": 31179, "name": "FENGYUN 1C DEB", "group": "fengyun-1c-debris", "lat": -34.05218784793037, "lon": 169.23695308636195, "alt_km": 1085.4683640173398, "timestamp": "2025-12-01T03:58:50.095284+00:00", "meta": {"OBJECT_NAME": "FENGYUN 1C DEB", "OBJECT_ID": "1999-025BJH", "EPOCH": "2025-11-30T07:58:55.048512", "MEAN_MOTION": 13.91866022, "ECCENTRICITY": 0.02155578, "INCLINATION": 99.0216, "RA_OF_ASC_NODE": 354.5895, "ARG_OF_PERICENTER": 34.4845, "MEAN_ANOMALY": 327.0088, "EPHEMERIS_TYPE": 0, "CLASSIFICATION_TYPE": "U", "NORAD_CAT_ID": 31179, "ELEMENT_SET_NO": 999, "REV_AT_EPOCH": 61768, "BSTAR": 0.0010958747, "MEAN_MOTION_DOT": 1.645e-05, "MEAN_MOTION_DDOT": 0, "GROUP": "fengyun-1c-debris"}, "tle": {"line1": "1 31179U 99025BJH 25334.33258158  .00001645  00000+0  10959-2 0  9999", "line2": "2 31179  99.0216 354.5895 0215557  34.4845 327.0088 13.91866022617686"}}, "geometry": {"type": "Point", "coordinates": [169.23695308636195, -34.05218784793037]}}, {"type": "Feature", "properties": {"norad_id": 31180, "name": "FENGYUN 1C DEB", "group": "fengyun-1c-debris", "lat": 33.940020434634185, "lon": -66.59291284804607, "alt_km": 773.8082302712291, "timestamp": "2025-12-01T03:58:50.095295+00:00", "meta": {"OBJECT_NAME": "FENGYUN 1C DEB", "OBJECT_ID": "1999-025BJJ", "EPOCH": "2025-11-30T15:08:19.454208", "MEAN_MOTION": 13.70323575, "ECCENTRICITY": 0.0498477, "INCLINATION": 99.2169, "RA_OF_ASC_NODE": 106.6187, "ARG_OF_PERICENTER": 91.7474, "MEAN_ANOMALY": 290.9094, "EPHEMERIS_TYPE": 0, "CLASSIFICATION_TYPE": "U", "NORAD_CAT_ID": 31180, "ELEMENT_SET_NO": 999, "REV_AT_EPOCH": 63901, "BSTAR": 0.00026447, "MEAN_MOTION_DOT": 5.24e-06, "MEAN_MOTION_DDOT": 0, "GROUP": "fengyun-1c-debris"}, "tle": {"line1": "1 31180U 99025BJJ 25334.63078072  .00000524  00000+0  26447-3 0  9994", "line2": "2 31180  99.2169 106.6187 0498477  91.7474 290.9094 13.70323575639019"}}, "geometry": {"type": "Point", "coordinates": [-66.59291284804607, 33.940020434634185]}}, {"type": "Feature", "properties": {"norad_id": 31181, "name": "FENGYUN 1C DEB", "group": "fengyun-1c-debris", "lat": 75.86091939583837, "lon": -134.20308624288265, "alt_km": 810.8941610458269, "timestamp": "2025-12-01T03:58:50.095305+00:00", "meta": {"OBJECT_NAME": "FENGYUN 1C DEB", "OBJECT_ID": "1999-025BJK", "EPOCH": "2025-11-26T13:40:01.687872", "MEAN_MOTION": 14.11809177, "ECCENTRICITY": 0.00486382, "INCLINATION": 98.7773, "RA_OF_ASC_NODE": 3.4699, "ARG_OF_PERICENTER": 119.5671, "MEAN_ANOMALY": 33.2423, "EPHEMERIS_TYPE": 0, "CLASSIFICATION_TYPE": "U", "NORAD_CAT_ID": 31181, "ELEMENT_SET_NO": 999, "REV_AT_EPOCH": 95539, "BSTAR": 0.0010936699, "MEAN_MOTION_DOT": 1.975e-05, "MEAN_MOTION_DDOT": 0, "GROUP": "fengyun-1c-debris"}, "tle": {"line1": "1 31181U 99025BJK 25330.56946398  .00001975  00000+0  10937-2 0  9995", "line2": "2 31181  98.7773   3.4699 0048638 119.5671  33.2423 14.11809177955394"}}, "geometry": {"type": "Point", "coordinates": [-134.20308624288265, 75.86091939583837]}}, {"type": "Feature", "properties": {"norad_id": 31182, "name": "FENGYUN 1C DEB", "group": "fengyun-1c-debris", "lat": 37.438195471591634, "lon": 151.08036097707162, "alt_km": 826.6122265924096, "timestamp": "2025-12-01T03:58:50.095316+00:00", "meta": {"OBJECT_NAME": "FENGYUN 1C DEB", "OBJECT_ID": "1999-025BJL", "EPOCH": "2025-11-30T19:23:45.055104", "MEAN_MOTION": 14.14526628, "ECCENTRICITY": 0.0022656, "INCLINATION": 98.6809, "RA_OF_ASC_NODE": 324.0155, "ARG_OF_PERICENTER": 170.3323, "MEAN_ANOMALY": 311.2725, "EPHEMERIS_TYPE": 0, "CLASSIFICATION_TYPE": "U", "NORAD_CAT_ID": 31182, "ELEMENT_SET_NO": 999, "REV_AT_EPOCH": 95912, "BSTAR": 0.00037538, "MEAN_MOTION_DOT": 6.79e-06, "MEAN_MOTION_DDOT": 0, "GROUP": "fengyun-1c-debris"}, "tle": {"line1": "1 31182U 99025BJL 25334.80816036  .00000679  00000+0  37538-3 0  9999", "line2": "2 31182  98.6809 324.0155 0022656 170.3323 311.2725 14.14526628959123"}}, "geometry": {"type": "Point", "coordinates": [151.08036097707162, 37.438195471591634]}}, {"type": "Feature", "properties": {"norad_id": 31183, "name": "FENGYUN 1C DEB", "group": "fengyun-1c-debris", "lat": 2.85147868829536, "lon": -42.38407061959291, "alt_km": 752.3345058567511, "timestamp": "2025-12-01T03:58:50.095326+00:00", "meta": {"OBJECT_NAME": "FENGYUN 1C DEB", "OBJECT_ID": "1999-025BJM", "EPOCH": "2025-11-30T17:11:51.406080", "MEAN_MOTION": 14.50257631, "ECCENTRICITY": 0.0046919, "INCLINATION": 99.0352, "RA_OF_ASC_NODE": 317.5884, "ARG_OF_PERICENTER": 143.0594, "MEAN_ANOMALY": 35.9321, "EPHEMERIS_TYPE": 0, "CLASSIFICATION_TYPE": "U", "NORAD_CAT_ID": 31183, "ELEMENT_SET_NO": 999, "REV_AT_EPOCH": 97308, "BSTAR": 0.0012201, "MEAN_MOTION_DOT": 4.769e-05, "MEAN_MOTION_DDOT": 0, "GROUP": "fengyun-1c-debris"}, "tle": {"line1": "1 31183U 99025BJM 25334.71656720  .00004769  00000+0  12201-2 0  9995", "line2": "2 31183  99.0352 317.5884 0046919 143.0594  35.9321 14.50257631973081"}}, "geometry": {"type": "Point", "coordinates": [-42.38407061959291, 2.85147868829536]}}, {"type": "Feature", "properties": {"norad_id": 31185, "name": "FENGYUN 1C DEB", "group": "fengyun-1c-debris", "lat": 57.01216413653032, "lon": 165.84092499591847, "alt_km": 849.1165769094305, "timestamp": "2025-12-01T03:58:50.095336+00:00", "meta": {"OBJECT_NAME": "FENGYUN 1C DEB", "OBJECT_ID": "1999-025BJP", "EPOCH": "2025-11-27T17:14:53.075040", "MEAN_MOTION": 14.03012744, "ECCENTRICITY": 0.00411946, "INCLINATION": 98.8318, "RA_OF_ASC_NODE": 328.6384, "ARG_OF_PERICENTER": 147.7082, "MEAN_ANOMALY": 212.6619, "EPHEMERIS_TYPE": 0, "CLASSIFICATION_TYPE": "U", "NORAD_CAT_ID": 31185, "ELEMENT_SET_NO": 999, "REV_AT_EPOCH": 62126, "BSTAR": 0.00033893543, "MEAN_MOTION_DOT": 4.88e-06, "MEAN_MOTION_DDOT": 0, "GROUP": "fengyun-1c-debris"}, "tle": {"line1": "1 31185U 99025BJP 25331.71866985  .00000488  00000+0  33894-3 0  9996", "line2": "2 31185  98.8318 328.6384 0041194 147.7082 212.6619 14.03012744621269"}}, "geometry": {"type": "Point", "coordinates": [165.84092499591847, 57.01216413653032]}}, {"type": "Feature", "properties": {"norad_id": 31186, "name": "FENGYUN 1C DEB", "group": "fengyun-1c-debris", "lat": -72.07647656500679, "lon": 40.25252420915775, "alt_km": 874.8310838960206, "timestamp": "2025-12-01T03:58:50.095347+00:00", "meta": {"OBJECT_NAME": "FENGYUN 1C DEB", "OBJECT_ID": "1999-025BJQ", "EPOCH": "2025-11-29T23:52:09.153696", "MEAN_MOTION": 14.12873063, "ECCENTRICITY": 0.00264868, "INCLINATION": 99.1773, "RA_OF_ASC_NODE": 249.04, "ARG_OF_PERICENTER": 97.4496, "MEAN_ANOMALY": 322.5672, "EPHEMERIS_TYPE": 0, "CLASSIFICATION_TYPE": "U", "NORAD_CAT_ID": 31186, "ELEMENT_SET_NO": 999, "REV_AT_EPOCH": 95925, "BSTAR": 0.00052752872, "MEAN_MOTION_DOT": 9.38e-06, "MEAN_MOTION_DDOT": 0, "GROUP": "fengyun-1c-debris"}, "tle": {"line1": "1 31186U 99025BJQ 25333.99455039  .00000938  00000+0  52753-3 0  9998", "line2": "2 31186  99.1773 249.0400 0026486  97.4496 322.5672 14.12873063959253"}}, "geometry": {"type": "Point", "coordinates": [40.25252420915775, -72.07647656500679]}}, {"type": "Feature", "properties": {"norad_id": 31187, "name": "FENGYUN 1C DEB", "group": "fengyun-1c-debris", "lat": 29.495261507531218, "lon": -167.9908514629408, "alt_km": 797.9435067307068, "timestamp": "2025-12-01T03:58:50.095358+00:00", "meta": {"OBJECT_NAME": "FENGYUN 1C DEB", "OBJECT_ID": "1999-025BJR", "EPOCH": "2025-11-25T21:03:31.422528", "MEAN_MOTION": 14.58329063, "ECCENTRICITY": 0.02237927, "INCLINATION": 99.239, "RA_OF_ASC_NODE": 191.4139, "ARG_OF_PERICENTER": 274.9562, "MEAN_ANOMALY": 82.6121, "EPHEMERIS_TYPE": 0, "CLASSIFICATION_TYPE": "U", "NORAD_CAT_ID": 31187, "ELEMENT_SET_NO": 999, "REV_AT_EPOCH": 68854, "BSTAR": 0.0036187968, "MEAN_MOTION_DOT": 0.00023712, "MEAN_MOTION_DDOT": 0, "GROUP": "fengyun-1c-debris"}, "tle": {"line1": "1 31187U 99025BJR 25329.87744702  .00023712  00000+0  36188-2 0  9997", "line2": "2 31187  99.2390 191.4139 0223792 274.9562  82.6121 14.58329063688544"}}, "geometry": {"type": "Point", "coordinates": [-167.9908514629408, 29.495261507531218]}}, {"type": "Feature", "properties": {"norad_id": 31188, "name": "FENGYUN 1C DEB", "group": "fengyun-1c-debris", "lat": -27.199951516998873, "lon": -141.52695226570583, "alt_km": 807.8071905834113, "timestamp": "2025-12-01T03:58:50.095370+00:00", "meta": {"OBJECT_NAME": "FENGYUN 1C DEB", "OBJECT_ID": "1999-025BJS", "EPOCH": "2025-11-30T03:31:42.985920", "MEAN_MOTION": 14.23692113, "ECCENTRICITY": 0.00592399, "INCLINATION": 98.75, "RA_OF_ASC_NODE": 41.9995, "ARG_OF_PERICENTER": 286.0852, "MEAN_ANOMALY": 103.1327, "EPHEMERIS_TYPE": 0, "CLASSIFICATION_TYPE": "U", "NORAD_CAT_ID": 31188, "ELEMENT_SET_NO": 999, "REV_AT_EPOCH": 96157, "BSTAR": 0.0016132598, "MEAN_MOTION_DOT": 3.706e-05, "MEAN_MOTION_DDOT": 0, "GROUP": "fengyun-1c-debris"}, "tle": {"line1": "1 31188U 99025BJS 25334.14702530  .00003706  00000+0  16133-2 0  9996", "line2": "2 31188  98.7500  41.9995 0059239 286.0852 103.1327 14.23692113961575"}}, "geometry": {"type": "Point", "coordinates": [-141.52695226570583, -27.199951516998873]}}]}